ICEYE-X72               
1 68504U 26067CS  26189.34424553  .00000745  00000+0  73759-4 0  9990
2 68504  97.7664 147.3801 0000865 272.3425  87.7696 14.94800654 14887
ICEYE-X78               
1 68995U 26100R   26189.13712972  .00000805  00000+0  85343-4 0  9993
2 68995  97.7345  86.2023 0003844  69.0883 291.0747 14.91804275  9828
ICEYE-X82               
1 68996U 26100S   26189.42558442  .00001154  00000+0  12107-3 0  9991
2 68996  97.7336  86.4345 0005865  79.9822 280.2058 14.91405142  9865
