{"fetched_at":"2026-07-08T17:59:50.271Z","source":"https://celestrak.org/NORAD/elements/gp.php?NAME=ICEYE&FORMAT=JSON","constellation":"iceye","records":[{"OBJECT_NAME":"ICEYE-X72","OBJECT_ID":"2026-067CS","EPOCH":"2026-07-08T08:15:42.813792","CLASSIFICATION_TYPE":"U","MEAN_MOTION":14.94800654,"ECCENTRICITY":0.0000865,"INCLINATION":97.7664,"RA_OF_ASC_NODE":147.3801,"ARG_OF_PERICENTER":272.3425,"MEAN_ANOMALY":87.7696,"EPHEMERIS_TYPE":0,"NORAD_CAT_ID":68504,"ELEMENT_SET_NO":999,"REV_AT_EPOCH":1488,"BSTAR":0.000073759,"MEAN_MOTION_DOT":0.00000745,"MEAN_MOTION_DDOT":0},{"OBJECT_NAME":"ICEYE-X78","OBJECT_ID":"2026-100R","EPOCH":"2026-07-08T03:17:28.007808","CLASSIFICATION_TYPE":"U","MEAN_MOTION":14.91804275,"ECCENTRICITY":0.0003844,"INCLINATION":97.7345,"RA_OF_ASC_NODE":86.2023,"ARG_OF_PERICENTER":69.0883,"MEAN_ANOMALY":291.0747,"EPHEMERIS_TYPE":0,"NORAD_CAT_ID":68995,"ELEMENT_SET_NO":999,"REV_AT_EPOCH":982,"BSTAR":0.000085343,"MEAN_MOTION_DOT":0.00000805,"MEAN_MOTION_DDOT":0},{"OBJECT_NAME":"ICEYE-X82","OBJECT_ID":"2026-100S","EPOCH":"2026-07-08T10:12:50.493888","CLASSIFICATION_TYPE":"U","MEAN_MOTION":14.91405142,"ECCENTRICITY":0.0005865,"INCLINATION":97.7336,"RA_OF_ASC_NODE":86.4345,"ARG_OF_PERICENTER":79.9822,"MEAN_ANOMALY":280.2058,"EPHEMERIS_TYPE":0,"NORAD_CAT_ID":68996,"ELEMENT_SET_NO":999,"REV_AT_EPOCH":986,"BSTAR":0.00012107,"MEAN_MOTION_DOT":0.00001154,"MEAN_MOTION_DDOT":0}]}
